ORBCOMM FM24            
1 25478U 98053D   25036.84919148  .00003184  00000+0  11001-2 0  9991
2 25478  45.0065 171.5795 0002715 247.3735 112.6826 14.37499177378825
ORBCOMM FM25            
1 25479U 98053E   25036.54039889  .00003145  00000+0  10875-2 0  9999
2 25479  45.0055 171.2980 0004319 278.6815  81.3544 14.37481849378798
ORBCOMM FM26            
1 25480U 98053F   25036.60818268  .00002577  00000+0  91508-3 0  9995
2 25480  45.0051 166.5262 0005446 307.3424  52.6927 14.36630911378728
ORBCOMM FM27            
1 25481U 98053G   25036.52985722  .00003058  00000+0  10588-2 0  9990
2 25481  45.0039 171.5893 0001829 215.6174 144.4552 14.37489582378726
ORBCOMM FM28            
1 25482U 98053H   25036.58775898  .00002469  00000+0  85937-3 0  9994
2 25482  45.0047 109.0377 0004114 323.7420  36.3149 14.37749467379413
ORBCOMM FM30            
1 25980U 99065A   25036.33464581  .00002542  00000+0  90074-3 0  9998
2 25980  45.0325 353.6039 0005957  51.0277 309.1101 14.36788645315480
ORBCOMM FM31            
1 25981U 99065B   25036.58169399  .00002249  00000+0  80278-3 0  9994
2 25981  45.0240 345.9711 0002928  67.8573 292.2585 14.36758267315077
ORBCOMM FM32            
1 25982U 99065C   25036.60980733  .00002633  00000+0  94989-3 0  9992
2 25982  45.0166   1.5263 0004527  75.4712 284.6637 14.35795398315684
