<?xml version="1.0" encoding="UTF-8"?>
<ndm xmlns:xsi="http://www.w3.org/2001/XMLSchema-instance" xsi:noNamespaceSchemaLocation="https://sanaregistry.org/r/ndmxml_unqualified/ndmxml-2.0.0-master-2.0.xsd">
<omm id="CCSDS_OMM_VERS" version="2.0">
<header><CREATION_DATE/><ORIGINATOR/></header><body><segment><metadata><OBJECT_NAME>ORBCOMM FM24</OBJECT_NAME><OBJECT_ID>1998-053D</OBJECT_ID><CENTER_NAME>EARTH</CENTER_NAME><REF_FRAME>TEME</REF_FRAME><TIME_SYSTEM>UTC</TIME_SYSTEM><MEAN_ELEMENT_THEORY>SGP4</MEAN_ELEMENT_THEORY></metadata><data><meanElements><EPOCH>2025-02-05T20:22:50.143872</EPOCH><MEAN_MOTION>14.37499177</MEAN_MOTION><ECCENTRICITY>.0002715</ECCENTRICITY><INCLINATION>45.0065</INCLINATION><RA_OF_ASC_NODE>171.5795</RA_OF_ASC_NODE><ARG_OF_PERICENTER>247.3735</ARG_OF_PERICENTER><MEAN_ANOMALY>112.6826</MEAN_ANOMALY></meanElements><tleParameters><EPHEMERIS_TYPE>0</EPHEMERIS_TYPE><CLASSIFICATION_TYPE>U</CLASSIFICATION_TYPE><NORAD_CAT_ID>25478</NORAD_CAT_ID><ELEMENT_SET_NO>999</ELEMENT_SET_NO><REV_AT_EPOCH>37882</REV_AT_EPOCH><BSTAR>.11001E-2</BSTAR><MEAN_MOTION_DOT>.3184E-4</MEAN_MOTION_DOT><MEAN_MOTION_DDOT>0</MEAN_MOTION_DDOT></tleParameters></data></segment></body></omm>
<omm id="CCSDS_OMM_VERS" version="2.0">
<header><CREATION_DATE/><ORIGINATOR/></header><body><segment><metadata><OBJECT_NAME>ORBCOMM FM25</OBJECT_NAME><OBJECT_ID>1998-053E</OBJECT_ID><CENTER_NAME>EARTH</CENTER_NAME><REF_FRAME>TEME</REF_FRAME><TIME_SYSTEM>UTC</TIME_SYSTEM><MEAN_ELEMENT_THEORY>SGP4</MEAN_ELEMENT_THEORY></metadata><data><meanElements><EPOCH>2025-02-05T12:58:10.464096</EPOCH><MEAN_MOTION>14.37481849</MEAN_MOTION><ECCENTRICITY>.0004319</ECCENTRICITY><INCLINATION>45.0055</INCLINATION><RA_OF_ASC_NODE>171.2980</RA_OF_ASC_NODE><ARG_OF_PERICENTER>278.6815</ARG_OF_PERICENTER><MEAN_ANOMALY>81.3544</MEAN_ANOMALY></meanElements><tleParameters><EPHEMERIS_TYPE>0</EPHEMERIS_TYPE><CLASSIFICATION_TYPE>U</CLASSIFICATION_TYPE><NORAD_CAT_ID>25479</NORAD_CAT_ID><ELEMENT_SET_NO>999</ELEMENT_SET_NO><REV_AT_EPOCH>37879</REV_AT_EPOCH><BSTAR>.10875E-2</BSTAR><MEAN_MOTION_DOT>.3145E-4</MEAN_MOTION_DOT><MEAN_MOTION_DDOT>0</MEAN_MOTION_DDOT></tleParameters></data></segment></body></omm>
<omm id="CCSDS_OMM_VERS" version="2.0">
<header><CREATION_DATE/><ORIGINATOR/></header><body><segment><metadata><OBJECT_NAME>ORBCOMM FM26</OBJECT_NAME><OBJECT_ID>1998-053F</OBJECT_ID><CENTER_NAME>EARTH</CENTER_NAME><REF_FRAME>TEME</REF_FRAME><TIME_SYSTEM>UTC</TIME_SYSTEM><MEAN_ELEMENT_THEORY>SGP4</MEAN_ELEMENT_THEORY></metadata><data><meanElements><EPOCH>2025-02-05T14:35:46.983552</EPOCH><MEAN_MOTION>14.36630911</MEAN_MOTION><ECCENTRICITY>.0005446</ECCENTRICITY><INCLINATION>45.0051</INCLINATION><RA_OF_ASC_NODE>166.5262</RA_OF_ASC_NODE><ARG_OF_PERICENTER>307.3424</ARG_OF_PERICENTER><MEAN_ANOMALY>52.6927</MEAN_ANOMALY></meanElements><tleParameters><EPHEMERIS_TYPE>0</EPHEMERIS_TYPE><CLASSIFICATION_TYPE>U</CLASSIFICATION_TYPE><NORAD_CAT_ID>25480</NORAD_CAT_ID><ELEMENT_SET_NO>999</ELEMENT_SET_NO><REV_AT_EPOCH>37872</REV_AT_EPOCH><BSTAR>.91508E-3</BSTAR><MEAN_MOTION_DOT>.2577E-4</MEAN_MOTION_DOT><MEAN_MOTION_DDOT>0</MEAN_MOTION_DDOT></tleParameters></data></segment></body></omm>
<omm id="CCSDS_OMM_VERS" version="2.0">
<header><CREATION_DATE/><ORIGINATOR/></header><body><segment><metadata><OBJECT_NAME>ORBCOMM FM27</OBJECT_NAME><OBJECT_ID>1998-053G</OBJECT_ID><CENTER_NAME>EARTH</CENTER_NAME><REF_FRAME>TEME</REF_FRAME><TIME_SYSTEM>UTC</TIME_SYSTEM><MEAN_ELEMENT_THEORY>SGP4</MEAN_ELEMENT_THEORY></metadata><data><meanElements><EPOCH>2025-02-05T12:42:59.663808</EPOCH><MEAN_MOTION>14.37489582</MEAN_MOTION><ECCENTRICITY>.0001829</ECCENTRICITY><INCLINATION>45.0039</INCLINATION><RA_OF_ASC_NODE>171.5893</RA_OF_ASC_NODE><ARG_OF_PERICENTER>215.6174</ARG_OF_PERICENTER><MEAN_ANOMALY>144.4552</MEAN_ANOMALY></meanElements><tleParameters><EPHEMERIS_TYPE>0</EPHEMERIS_TYPE><CLASSIFICATION_TYPE>U</CLASSIFICATION_TYPE><NORAD_CAT_ID>25481</NORAD_CAT_ID><ELEMENT_SET_NO>999</ELEMENT_SET_NO><REV_AT_EPOCH>37872</REV_AT_EPOCH><BSTAR>.10588E-2</BSTAR><MEAN_MOTION_DOT>.3058E-4</MEAN_MOTION_DOT><MEAN_MOTION_DDOT>0</MEAN_MOTION_DDOT></tleParameters></data></segment></body></omm>
<omm id="CCSDS_OMM_VERS" version="2.0">
<header><CREATION_DATE/><ORIGINATOR/></header><body><segment><metadata><OBJECT_NAME>ORBCOMM FM28</OBJECT_NAME><OBJECT_ID>1998-053H</OBJECT_ID><CENTER_NAME>EARTH</CENTER_NAME><REF_FRAME>TEME</REF_FRAME><TIME_SYSTEM>UTC</TIME_SYSTEM><MEAN_ELEMENT_THEORY>SGP4</MEAN_ELEMENT_THEORY></metadata><data><meanElements><EPOCH>2025-02-05T14:06:22.375872</EPOCH><MEAN_MOTION>14.37749467</MEAN_MOTION><ECCENTRICITY>.0004114</ECCENTRICITY><INCLINATION>45.0047</INCLINATION><RA_OF_ASC_NODE>109.0377</RA_OF_ASC_NODE><ARG_OF_PERICENTER>323.7420</ARG_OF_PERICENTER><MEAN_ANOMALY>36.3149</MEAN_ANOMALY></meanElements><tleParameters><EPHEMERIS_TYPE>0</EPHEMERIS_TYPE><CLASSIFICATION_TYPE>U</CLASSIFICATION_TYPE><NORAD_CAT_ID>25482</NORAD_CAT_ID><ELEMENT_SET_NO>999</ELEMENT_SET_NO><REV_AT_EPOCH>37941</REV_AT_EPOCH><BSTAR>.85937E-3</BSTAR><MEAN_MOTION_DOT>.2469E-4</MEAN_MOTION_DOT><MEAN_MOTION_DDOT>0</MEAN_MOTION_DDOT></tleParameters></data></segment></body></omm>
<omm id="CCSDS_OMM_VERS" version="2.0">
<header><CREATION_DATE/><ORIGINATOR/></header><body><segment><metadata><OBJECT_NAME>ORBCOMM FM30</OBJECT_NAME><OBJECT_ID>1999-065A</OBJECT_ID><CENTER_NAME>EARTH</CENTER_NAME><REF_FRAME>TEME</REF_FRAME><TIME_SYSTEM>UTC</TIME_SYSTEM><MEAN_ELEMENT_THEORY>SGP4</MEAN_ELEMENT_THEORY></metadata><data><meanElements><EPOCH>2025-02-05T08:01:53.397984</EPOCH><MEAN_MOTION>14.36788645</MEAN_MOTION><ECCENTRICITY>.0005957</ECCENTRICITY><INCLINATION>45.0325</INCLINATION><RA_OF_ASC_NODE>353.6039</RA_OF_ASC_NODE><ARG_OF_PERICENTER>51.0277</ARG_OF_PERICENTER><MEAN_ANOMALY>309.1101</MEAN_ANOMALY></meanElements><tleParameters><EPHEMERIS_TYPE>0</EPHEMERIS_TYPE><CLASSIFICATION_TYPE>U</CLASSIFICATION_TYPE><NORAD_CAT_ID>25980</NORAD_CAT_ID><ELEMENT_SET_NO>999</ELEMENT_SET_NO><REV_AT_EPOCH>31548</REV_AT_EPOCH><BSTAR>.90074E-3</BSTAR><MEAN_MOTION_DOT>.2542E-4</MEAN_MOTION_DOT><MEAN_MOTION_DDOT>0</MEAN_MOTION_DDOT></tleParameters></data></segment></body></omm>
<omm id="CCSDS_OMM_VERS" version="2.0">
<header><CREATION_DATE/><ORIGINATOR/></header><body><segment><metadata><OBJECT_NAME>ORBCOMM FM31</OBJECT_NAME><OBJECT_ID>1999-065B</OBJECT_ID><CENTER_NAME>EARTH</CENTER_NAME><REF_FRAME>TEME</REF_FRAME><TIME_SYSTEM>UTC</TIME_SYSTEM><MEAN_ELEMENT_THEORY>SGP4</MEAN_ELEMENT_THEORY></metadata><data><meanElements><EPOCH>2025-02-05T13:57:38.360736</EPOCH><MEAN_MOTION>14.36758267</MEAN_MOTION><ECCENTRICITY>.0002928</ECCENTRICITY><INCLINATION>45.0240</INCLINATION><RA_OF_ASC_NODE>345.9711</RA_OF_ASC_NODE><ARG_OF_PERICENTER>67.8573</ARG_OF_PERICENTER><MEAN_ANOMALY>292.2585</MEAN_ANOMALY></meanElements><tleParameters><EPHEMERIS_TYPE>0</EPHEMERIS_TYPE><CLASSIFICATION_TYPE>U</CLASSIFICATION_TYPE><NORAD_CAT_ID>25981</NORAD_CAT_ID><ELEMENT_SET_NO>999</ELEMENT_SET_NO><REV_AT_EPOCH>31507</REV_AT_EPOCH><BSTAR>.80278E-3</BSTAR><MEAN_MOTION_DOT>.2249E-4</MEAN_MOTION_DOT><MEAN_MOTION_DDOT>0</MEAN_MOTION_DDOT></tleParameters></data></segment></body></omm>
<omm id="CCSDS_OMM_VERS" version="2.0">
<header><CREATION_DATE/><ORIGINATOR/></header><body><segment><metadata><OBJECT_NAME>ORBCOMM FM32</OBJECT_NAME><OBJECT_ID>1999-065C</OBJECT_ID><CENTER_NAME>EARTH</CENTER_NAME><REF_FRAME>TEME</REF_FRAME><TIME_SYSTEM>UTC</TIME_SYSTEM><MEAN_ELEMENT_THEORY>SGP4</MEAN_ELEMENT_THEORY></metadata><data><meanElements><EPOCH>2025-02-05T14:38:07.353312</EPOCH><MEAN_MOTION>14.35795398</MEAN_MOTION><ECCENTRICITY>.0004527</ECCENTRICITY><INCLINATION>45.0166</INCLINATION><RA_OF_ASC_NODE>1.5263</RA_OF_ASC_NODE><ARG_OF_PERICENTER>75.4712</ARG_OF_PERICENTER><MEAN_ANOMALY>284.6637</MEAN_ANOMALY></meanElements><tleParameters><EPHEMERIS_TYPE>0</EPHEMERIS_TYPE><CLASSIFICATION_TYPE>U</CLASSIFICATION_TYPE><NORAD_CAT_ID>25982</NORAD_CAT_ID><ELEMENT_SET_NO>999</ELEMENT_SET_NO><REV_AT_EPOCH>31568</REV_AT_EPOCH><BSTAR>.94989E-3</BSTAR><MEAN_MOTION_DOT>.2633E-4</MEAN_MOTION_DOT><MEAN_MOTION_DDOT>0</MEAN_MOTION_DDOT></tleParameters></data></segment></body></omm>

</ndm>
